NORAD_CAT_ID,OBJECT_NAME,OBJECT_TYPE,EPOCH,MEAN_MOTION,ECCENTRICITY,INCLINATION,RA_OF_ASC_NODE,ARG_OF_PERICENTER,MEAN_ANOMALY,BSTAR,MEAN_MOTION_DOT,MEAN_MOTION_DDOT,TLE_LINE0,TLE_LINE1,TLE_LINE2,SEMIMAJOR_AXIS,PERIOD,APOGEE,PERIGEE,DECAYED
52567.0,STARLINK-3929,PAYLOAD,2022-06-22 16:00:00,15.73160276,0.0002394,53.2149,96.4155,22.1432,271.7936,0.00070608,0.00099492,0.0,0 STARLINK-3929,1 52567U 22051AL  22173.66667824  .00099492  00000-0  70608-3 0  9992,2 52567  53.2149  96.4155 0002394  22.1432 271.7936 15.73160276  6798,6728.0080000000025,91.535,351.4840000000001,348.26300000000015,0.0
52567.0,STARLINK-3929,PAYLOAD,2022-06-22 22:00:00,15.73265977,0.0002378,53.2154,95.1793,21.4191,249.1946,-0.00059265,-0.00083225,0.0,0 STARLINK-3929,1 52567U 22051AL  22173.91667824 -.00083225  00000-0 -59265-3 0  9995,2 52567  53.2154  95.1793 0002378  21.4191 249.1946 15.73265977  1300,6727.706999999999,91.529,351.172,347.972,0.0
52567.0,STARLINK-3929,PAYLOAD,2022-06-23 06:00:00,15.73177517,0.0002634999999999,53.2153,93.5311,17.3309,342.2711,0.00060764,0.00085456,0.0,0 STARLINK-3929,1 52567U 22051AL  22174.25001157  .00085456  00000-0  60764-3 0  9996,2 52567  53.2153  93.5311 0002635  17.3309 342.2711 15.73177517  6894,6727.959,91.534,351.597,348.051,0.0
52567.0,STARLINK-3929,PAYLOAD,2022-06-23 14:00:01,15.73198396,0.0002427,53.2156,91.8795,22.0945,66.4504,-3.0444e-05,-4.892e-05,0.0,0 STARLINK-3929,1 52567U 22051AL  22174.58334491 -.00004892  00000-0 -30444-4 0  9992,2 52567  53.2156  91.8795 0002427  22.0945  66.4504 15.73198396  6941,6727.9,91.533,351.398,348.13199999999995,0.0
52567.0,STARLINK-3929,PAYLOAD,2022-06-23 22:00:00,15.73189682,0.0002618,53.2156,90.2308,28.2448,149.2185,-0.00026521,-0.00037666,0.0,0 STARLINK-3929,1 52567U 22051AL  22174.91667824 -.00037666  00000-0 -26521-3 0  9993,2 52567  53.2156  90.2308 0002618  28.2448 149.2185 15.73189682  1300,6727.925,91.534,351.551,348.028,0.0
52567.0,STARLINK-3929,PAYLOAD,2022-06-24 06:00:02,15.73148563,0.0002784,53.215,88.5825,27.6401,238.7823,0.00056653,0.00079478,0.0,0 STARLINK-3929,1 52567U 22051AL  22175.25002315  .00079478  00000-0  56653-3 0  9993,2 52567  53.2150  88.5825 0002784  27.6401 238.7823 15.73148563  7047,6728.042,91.536,351.78,348.034,0.0
52567.0,STARLINK-3929,PAYLOAD,2022-06-24 14:00:01,15.73310293,0.0002313,53.2159,86.91799999999998,18.6476,336.7178,-0.0024549,-0.00333497,0.0,0 STARLINK-3929,1 52567U 22051AL  22175.58334491 -.00333497  00000-0 -24549-2 0  9996,2 52567  53.2159  86.9180 0002313  18.6476 336.7178 15.73310293  7102,6727.581,91.527,351.00199999999984,347.89,0.0
52567.0,STARLINK-3929,PAYLOAD,2022-06-24 22:00:01,15.73409722,0.0002458,53.2161,85.2694,21.52,62.8355,-0.0037561,-0.00502154,0.0,0 STARLINK-3929,1 52567U 22051AL  22175.91668981 -.00502154  00000-0 -37561-2 0  9993,2 52567  53.2161  85.2694 0002458  21.5200  62.8355 15.73409722  7150,6727.297,91.521,350.816,347.509,0.0
52567.0,STARLINK-3929,PAYLOAD,2022-06-25 06:00:00,15.73185512,0.0002491,53.2155,83.6339,14.7288,158.5191,0.00022369,0.00030871,0.0,0 STARLINK-3929,1 52567U 22051AL  22176.25001157  .00030871  00000-0  22369-3 0  9998,2 52567  53.2155  83.6339 0002491  14.7288 158.5191 15.73185512  7203,6727.936,91.534,351.477,348.126,0.0
52567.0,STARLINK-3929,PAYLOAD,2022-06-25 14:00:01,15.73164295,0.0002333,53.2159,81.9823,19.4045,242.7919,0.00028673,0.00039752,0.0,0 STARLINK-3929,1 52567U 22051AL  22176.58334491  .00039752  00000-0  28673-3 0  9995,2 52567  53.2159  81.9823 0002333  19.4045 242.7919 15.73164295  1308,6727.996999999999,91.535,351.432,348.292,0.0
52567.0,STARLINK-3929,PAYLOAD,2022-06-25 22:00:00,15.73212965,0.0002445,53.2159,80.3341,21.8333,329.2684,8.695899999999999e-05,0.00011607,0.0,0 STARLINK-3929,1 52567U 22051AL  22176.91667824  .00011607  00000-0  86959-4 0  9992,2 52567  53.2159  80.3341 0002445  21.8333 329.2684 15.73212965  7312,6727.858,91.532,351.36800000000005,348.07800000000015,0.0
52567.0,STARLINK-3929,PAYLOAD,2022-06-26 14:00:01,15.73219162,0.0002212,53.2154,77.0337,20.3797,148.7385,-8.764200000000001e-05,-0.00012914,0.0,0 STARLINK-3929,1 52567U 22051AL  22177.58335648 -.00012914  00000-0 -87642-4 0  9996,2 52567  53.2154  77.0337 0002212  20.3797 148.7385 15.73219162  1306,6727.840999999999,91.532,351.194,348.217,0.0
52567.0,STARLINK-3929,PAYLOAD,2022-06-26 22:00:00,15.73219446,0.0002319,53.2158,75.3858,21.9194,236.0764,8.5959e-05,0.0001147,0.0,0 STARLINK-3929,1 52567U 22051AL  22177.91667824  .00011470  00000-0  85959-4 0  9990,2 52567  53.2158  75.3858 0002319  21.9194 236.0764 15.73219446  1302,6727.84,91.532,351.265,348.145,0.0
52567.0,STARLINK-3929,PAYLOAD,2022-06-27 06:00:00,15.73205601,0.0002021,53.2172,73.7091,21.5727,325.1532,-5.7577e-06,-1.429e-05,0.0,0 STARLINK-3929,1 52567U 22051AL  22178.25001157 -.00001429  00000-0 -57577-5 0  9990,2 52567  53.2172  73.7091 0002021  21.5727 325.1532 15.73205601  7528,6727.879,91.533,351.10400000000016,348.385,0.0
52567.0,STARLINK-3929,PAYLOAD,2022-06-27 14:00:01,15.73214277,0.0002334,53.216,72.0855,26.1029,49.7342,2.5324e-05,2.936e-05,0.0,0 STARLINK-3929,1 52567U 22051AL  22178.58334491  .00002936  00000-0  25324-4 0  9992,2 52567  53.2160  72.0855 0002334  26.1029  49.7342 15.73214277  7570,6727.854,91.532,351.29,348.149,0.0
52567.0,STARLINK-3929,PAYLOAD,2022-06-27 22:00:00,15.73194641,0.0002539,53.2158,70.4375,28.2007,136.5914,0.00017428,0.00023904,0.0,0 STARLINK-3929,1 52567U 22051AL  22178.91667824  .00023904  00000-0  17428-3 0  9991,2 52567  53.2158  70.4375 0002539  28.2007 136.5914 15.73194641  1309,6727.91,91.533,351.4840000000001,348.06699999999995,0.0
52567.0,STARLINK-3929,PAYLOAD,2022-06-28 06:00:00,15.73206142,0.0002571,53.2151,68.7885,26.1336,227.5407,-0.00057237,-0.00080225,0.0,0 STARLINK-3929,1 52567U 22051AL  22179.25001157 -.00080225  00000-0 -57237-3 0  9993,2 52567  53.2151  68.7885 0002571  26.1336 227.5407 15.73206142  7670,6727.878000000002,91.533,351.472,348.01300000000015,0.0
52567.0,STARLINK-3929,PAYLOAD,2022-06-28 14:00:01,15.73160089,0.0002304,53.2155,67.13600000000001,28.3787,314.2055,-0.00021668,-0.00030871,0.0,0 STARLINK-3929,1 52567U 22051AL  22179.58334491 -.00030871  00000-0 -21668-3 0  9990,2 52567  53.2155  67.1360 0002304  28.3787 314.2055 15.73160089  1309,6728.009,91.536,351.4240000000001,348.324,0.0
52567.0,STARLINK-3929,PAYLOAD,2022-06-28 22:00:00,15.73170672,0.0002648999999999,53.216,65.477,28.6679,42.7844,-0.0007017,-0.00097862,0.0,0 STARLINK-3929,1 52567U 22051AL  22179.91667824 -.00097862  00000-0 -70170-3 0  9991,2 52567  53.2160  65.4770 0002649  28.6679  42.7844 15.73170672  1304,6727.979,91.535,351.626,348.06199999999984,0.0
52567.0,STARLINK-3929,PAYLOAD,2022-06-29 06:00:00,15.73380412,0.0002236,53.2163,63.8171,29.9491,130.3097,-0.0069804,-0.00889605,0.0,0 STARLINK-3929,1 52567U 22051AL  22180.25001157 -.00889605  00000-0 -69804-2 0  9996,2 52567  53.2163  63.8171 0002236  29.9491 130.3097 15.73380412  7835,6727.380999999999,91.523,350.75,347.742,0.0
52567.0,STARLINK-3929,PAYLOAD,2022-06-29 14:00:01,15.72732475,0.0002061,53.2173,62.1562,23.0932,225.9326,-0.0085142,-0.01054221,0.0,0 STARLINK-3929,1 52567U 22051AL  22180.58334491 -.01054221  00000-0 -85142-2 0  9994,2 52567  53.2173  62.1562 0002061  23.0932 225.9326 15.72732475  7883,6729.228,91.56,352.48,349.707,0.0
52567.0,STARLINK-3929,PAYLOAD,2022-06-29 22:00:00,15.71973645,0.000246,53.2175,60.5083,14.1456,322.7815,-0.0087986,-0.01054686,0.0,0 STARLINK-3929,1 52567U 22051AL  22180.91667824 -.01054686  00000-0 -87986-2 0  9993,2 52567  53.2175  60.5083 0002460  14.1456 322.7815 15.71973645  1305,6731.394,91.605,354.915,351.603,0.0
52567.0,STARLINK-3929,PAYLOAD,2022-06-30 06:00:00,15.71213668,0.000219,53.2171,58.8602,16.2682,47.6494,-0.0090736,-0.01053052,0.0,0 STARLINK-3929,1 52567U 22051AL  22181.25001157 -.01053052  00000-0 -90736-2 0  9995,2 52567  53.2171  58.8602 0002190  16.2682  47.6494 15.71213668  7991,6733.564,91.649,356.904,353.955,0.0
52567.0,STARLINK-3929,PAYLOAD,2022-06-30 14:00:01,15.70457005,0.000255,53.2172,57.2126,3.9092,146.086,-0.0094237,-0.01058762,0.0,0 STARLINK-3929,1 52567U 22051AL  22181.58334491 -.01058762  00000-0 -94237-2 0  9994,2 52567  53.2172  57.2126 0002550   3.9092 146.0860 15.70457005  1308,6735.727,91.693,359.31,355.874,0.0
52567.0,STARLINK-3929,PAYLOAD,2022-06-30 22:00:00,15.69682825,0.0004892,53.2172,55.5704,318.8484,276.3156,-0.0094782,-0.01034692,0.0,0 STARLINK-3929,1 52567U 22051AL  22181.91667824 -.01034692  00000-0 -94782-2 0  9991,2 52567  53.2172  55.5704 0004892 318.8484 276.3156 15.69682825  1308,6737.941999999999,91.738,363.103,356.51,0.0
52567.0,STARLINK-3929,PAYLOAD,2022-07-01 06:00:00,15.68932497,0.00052,53.2172,53.9276,342.9456,336.4673,-0.0099252,-0.01048726,0.0,0 STARLINK-3929,1 52567U 22051AL  22182.25001157 -.01048726  00000-0 -99252-2 0  9990,2 52567  53.2172  53.9276 0005200 342.9456 336.4673 15.68932497  8148,6740.09,91.782,365.459,358.45,0.0
52567.0,STARLINK-3929,PAYLOAD,2022-07-01 14:00:01,15.68174153,0.0001047,53.2174,52.2855,68.9887,333.7645,-0.010279,-0.01050201,0.0,0 STARLINK-3929,1 52567U 22051AL  22182.58334491 -.01050201  00000-0 -10279-1 0  9998,2 52567  53.2174  52.2855 0001047  68.9887 333.7645 15.68174153  1300,6742.262,91.827,364.833,363.421,0.0
52567.0,STARLINK-3929,PAYLOAD,2022-07-01 22:00:00,15.67416008,0.0001301,53.2174,50.6489,61.8013,63.3767,-0.010616,-0.01051274,0.0,0 STARLINK-3929,1 52567U 22051AL  22182.91667824 -.01051274  00000-0 -10616-1 0  9990,2 52567  53.2174  50.6489 0001301  61.8013  63.3767 15.67416008  1309,6744.436,91.871,367.179,365.424,0.0
52567.0,STARLINK-3929,PAYLOAD,2022-07-02 06:00:00,15.66657807,0.0001204,53.2172,49.0115,81.1991,125.4934,-0.010978,-0.01053619,0.0,0 STARLINK-3929,1 52567U 22051AL  22183.25001157 -.01053619  00000-0 -10978-1 0  9995,2 52567  53.2172  49.0115 0001204  81.1991 125.4934 15.66657807  8303,6746.611999999999,91.915,369.289,367.665,0.0
